OBJECT_NAME,OBJECT_ID,EPOCH,MEAN_MOTION,ECCENTRICITY,INCLINATION,RA_OF_ASC_NODE,ARG_OF_PERICENTER,MEAN_ANOMALY,EPHEMERIS_TYPE,CLASSIFICATION_TYPE,NORAD_CAT_ID,ELEMENT_SET_NO,REV_AT_EPOCH,BSTAR,MEAN_MOTION_DOT,MEAN_MOTION_DDOT
ONEWEB-0572,2023-004M,2026-06-15T02:08:42.159840,13.17648822,.00019195,87.9134,6.2828,94.0394,266.0957,0,U,55151,999,16720,-.39921347E-4,-.3E-7,0
ONEWEB-0573,2023-004N,2026-06-14T23:46:13.128672,13.18686133,.00021432,87.9159,335.9066,116.5765,243.5587,0,U,55152,999,16940,-.82104025E-4,-.19E-6,0
ONEWEB-0588,2023-004P,2026-06-14T23:36:30.323520,13.18684713,.00023239,87.9157,335.9082,97.6035,262.5361,0,U,55153,999,16940,.14050912E-3,.68E-6,0
ONEWEB-0598,2023-004Q,2026-06-15T02:24:20.424096,13.11419729,.00016102,87.8887,21.4845,109.0489,251.0813,0,U,55154,999,16562,-.72010964E-3,-.243E-5,0
ONEWEB-0599,2023-004R,2026-06-15T01:12:49.096800,13.17648418,.00016298,87.9133,6.2894,88.3414,271.7904,0,U,55155,999,16720,-.72160275E-4,-.15E-6,0
ONEWEB-0614,2023-004S,2026-06-15T02:17:00.500352,13.11417053,.00020356,87.8888,21.4943,82.5649,277.5710,0,U,55156,999,16556,-.14608324E-2,-.505E-5,0
ONEWEB-0616,2023-004T,2026-06-15T00:24:13.495104,13.17649189,.00010012,87.9134,6.2995,71.1913,288.9327,0,U,55157,999,16741,.17549368E-3,.81E-6,0
ONEWEB-0617,2023-004U,2026-06-15T03:49:47.844192,13.11416137,.0002249,87.8890,21.4719,85.6005,274.5380,0,U,55158,999,16559,-.17667727E-2,-.613E-5,0
ONEWEB-0618,2023-004V,2026-06-15T01:47:31.759296,15.13126283,.0009978,86.9089,178.4924,310.6626,49.3746,0,U,55159,999,18194,.18013519E-3,.3226E-4,0
ONEWEB-0619,2023-004W,2026-06-15T01:10:23.821248,13.17648868,.00019767,87.9144,6.2740,75.4789,284.6562,0,U,55160,999,16731,-.35964392E-4,-.1E-7,0
ONEWEB-0620,2023-004X,2026-06-15T03:42:27.275904,13.11415276,.00019092,87.8885,21.4817,94.1083,266.0264,0,U,55161,999,16556,-.2066146E-2,-.72E-5,0
ONEWEB-0621,2023-004Y,2026-06-15T02:31:39.933984,13.11419669,.00020121,87.8898,21.4804,81.4090,278.7266,0,U,55162,999,16553,-.30767121E-4,.2E-7,0
ONEWEB-0622,2023-004Z,2026-06-15T02:39:00.179136,13.11419198,.00025499,87.8899,21.4818,89.7407,270.4013,0,U,55163,999,16552,.34540531E-3,.135E-5,0
ONEWEB-0623,2023-004AA,2026-06-15T02:52:26.634144,13.17649475,.00025686,87.9130,6.2903,78.3693,281.7727,0,U,55164,999,16731,-.86929319E-4,-.21E-6,0
ONEWEB-0624,2023-004AB,2026-06-15T01:27:53.983008,13.12927194,.00018915,87.8945,351.0085,88.0315,272.1031,0,U,55165,999,16779,-.2051974E-3,-.62E-6,0
ONEWEB-0625,2023-004AC,2026-06-15T02:37:52.561632,13.17649205,.00017327,87.9134,6.2876,84.5616,275.5713,0,U,55166,999,16730,-.18658394E-3,-.6E-6,0
ONEWEB-0626,2023-004AD,2026-06-15T02:23:17.960352,13.17649766,.00018524,87.9133,6.2892,101.4328,258.7012,0,U,55167,999,16730,-.15516735E-3,-.47E-6,0
ONEWEB-0627,2023-004AE,2026-06-15T02:06:16.342560,13.17648465,.00023077,87.9133,6.2920,81.5563,278.5830,0,U,55168,999,16730,-.2715286E-5,.12E-6,0
ONEWEB-0628,2023-004AF,2026-06-14T21:20:27.146112,13.12444517,.0002357,87.8946,351.1100,78.7531,281.3863,0,U,55169,999,16773,.12072E-2,.447E-5,0
ONEWEB-0629,2023-004AG,2026-06-15T06:59:04.406208,13.17647649,.00019106,87.9132,6.2478,78.3880,281.7466,0,U,55170,999,16733,.12289059E-3,.61E-6,0
ONEWEB-0631,2023-004AH,2026-06-14T23:26:47.546880,13.18684665,.00021939,87.9168,335.8753,103.0345,257.1033,0,U,55171,999,16938,.20651921E-3,.94E-6,0
ONEWEB-0709,2023-004AJ,2026-06-15T07:07:33.917376,13.11414321,.00016929,87.8884,21.4556,114.3599,245.7706,0,U,55172,999,16562,.12174517E-3,.56E-6,0
ONEWEB-0710,2023-004AK,2026-06-15T01:51:41.806944,13.17649283,.00020244,87.9133,6.2855,87.4468,272.6895,0,U,55173,999,16730,-.29924105E-4,.1E-7,0
ONEWEB-0711,2023-004AL,2026-06-15T02:46:20.384544,13.11420054,.00025629,87.8889,21.4791,82.7282,277.4137,0,U,55174,999,16556,.10583101E-2,.388E-5,0
ONEWEB-0713,2023-004AM,2026-06-15T06:52:55.961184,13.11415180,.0002222,87.8889,21.4466,84.1839,275.9542,0,U,55175,999,16557,.11921991E-2,.435E-5,0
ONEWEB-0715,2023-004AN,2026-06-15T03:05:51.904608,13.11417641,.00019921,87.8889,21.4787,105.8326,254.3021,0,U,55176,999,16559,.1354843E-2,.493E-5,0
ONEWEB-0716,2023-004AP,2026-06-15T01:41:58.577568,13.17649407,.00016193,87.9134,6.2897,84.7448,275.3868,0,U,55177,999,16730,.16289851E-3,.76E-6,0
ONEWEB-0717,2023-004AQ,2026-06-15T01:17:40.784928,13.17648607,.00024321,87.9143,6.2804,90.4151,269.7259,0,U,55178,999,16735,-.12587219E-3,-.36E-6,0
ONEWEB-0719,2023-004AR,2026-06-15T07:00:18.660096,13.17648920,.00017813,87.9141,6.2134,82.4903,277.6430,0,U,55179,999,16733,-.18224077E-4,.6E-7,0
ONEWEB-0530,2023-029A,2026-06-15T06:31:21.162144,13.20770938,.00023184,87.9183,274.8510,92.3760,267.7639,0,U,55796,999,16089,.81406635E-4,.46E-6,0
