ONEWEB-0572             
1 55151U 23004M   26166.08937685 -.00000003  00000+0 -39921-4 0  9995
2 55151  87.9134   6.2828 0001919  94.0394 266.0957 13.17648822167209
ONEWEB-0573             
1 55152U 23004N   26165.99042973 -.00000019  00000+0 -82104-4 0  9990
2 55152  87.9159 335.9066 0002143 116.5765 243.5587 13.18686133169406
ONEWEB-0588             
1 55153U 23004P   26165.98368430  .00000068  00000+0  14051-3 0  9996
2 55153  87.9157 335.9082 0002323  97.6035 262.5361 13.18684713169405
ONEWEB-0598             
1 55154U 23004Q   26166.10023639 -.00000243  00000+0 -72011-3 0  9998
2 55154  87.8887  21.4845 0001610 109.0489 251.0813 13.11419729165629
ONEWEB-0599             
1 55155U 23004R   26166.05056825 -.00000015  00000+0 -72160-4 0  9999
2 55155  87.9133   6.2894 0001629  88.3414 271.7904 13.17648418167208
ONEWEB-0614             
1 55156U 23004S   26166.09514468 -.00000505  00000+0 -14608-2 0  9991
2 55156  87.8888  21.4943 0002035  82.5649 277.5710 13.11417053165566
ONEWEB-0616             
1 55157U 23004T   26166.01682286  .00000081  00000+0  17549-3 0  9993
2 55157  87.9134   6.2995 0001001  71.1913 288.9327 13.17649189167419
ONEWEB-0617             
1 55158U 23004U   26166.15958153 -.00000613  00000+0 -17668-2 0  9992
2 55158  87.8890  21.4719 0002249  85.6005 274.5380 13.11416137165594
ONEWEB-0618             
1 55159U 23004V   26166.07467314  .00003226  00000+0  18014-3 0  9996
2 55159  86.9089 178.4924 0009978 310.6626  49.3746 15.13126283181947
ONEWEB-0619             
1 55160U 23004W   26166.04888682 -.00000001  00000+0 -35964-4 0  9994
2 55160  87.9144   6.2740 0001976  75.4789 284.6562 13.17648868167317
ONEWEB-0620             
1 55161U 23004X   26166.15448236 -.00000720  00000+0 -20661-2 0  9998
2 55161  87.8885  21.4817 0001909  94.1083 266.0264 13.11415276165561
ONEWEB-0621             
1 55162U 23004Y   26166.10532331  .00000002  00000+0 -30767-4 0  9996
2 55162  87.8898  21.4804 0002012  81.4090 278.7266 13.11419669165534
ONEWEB-0622             
1 55163U 23004Z   26166.11041874  .00000135  00000+0  34541-3 0  9994
2 55163  87.8899  21.4818 0002549  89.7407 270.4013 13.11419198165524
ONEWEB-0623             
1 55164U 23004AA  26166.11975271 -.00000021  00000+0 -86929-4 0  9996
2 55164  87.9130   6.2903 0002568  78.3693 281.7727 13.17649475167317
ONEWEB-0624             
1 55165U 23004AB  26166.06104147 -.00000062  00000+0 -20520-3 0  9996
2 55165  87.8945 351.0085 0001891  88.0315 272.1031 13.12927194167796
ONEWEB-0625             
1 55166U 23004AC  26166.10963613 -.00000060  00000+0 -18658-3 0  9990
2 55166  87.9134   6.2876 0001732  84.5616 275.5713 13.17649205167304
ONEWEB-0626             
1 55167U 23004AD  26166.09951343 -.00000047  00000+0 -15517-3 0  9992
2 55167  87.9133   6.2892 0001852 101.4328 258.7012 13.17649766167301
ONEWEB-0627             
1 55168U 23004AE  26166.08768915  .00000012  00000+0 -27153-5 0  9995
2 55168  87.9133   6.2920 0002307  81.5563 278.5830 13.17648465167302
ONEWEB-0628             
1 55169U 23004AF  26165.88920308  .00000447  00000+0  12072-2 0  9991
2 55169  87.8946 351.1100 0002357  78.7531 281.3863 13.12444517167736
ONEWEB-0629             
1 55170U 23004AG  26166.29102322  .00000061  00000+0  12289-3 0  9990
2 55170  87.9132   6.2478 0001910  78.3880 281.7466 13.17647649167334
ONEWEB-0631             
1 55171U 23004AH  26165.97693920  .00000094  00000+0  20652-3 0  9993
2 55171  87.9168 335.8753 0002193 103.0345 257.1033 13.18684665169381
ONEWEB-0709             
1 55172U 23004AJ  26166.29692034  .00000056  00000+0  12175-3 0  9994
2 55172  87.8884  21.4556 0001692 114.3599 245.7706 13.11414321165620
ONEWEB-0710             
1 55173U 23004AK  26166.07756721  .00000001  00000+0 -29924-4 0  9997
2 55173  87.9133   6.2855 0002024  87.4468 272.6895 13.17649283167305
ONEWEB-0711             
1 55174U 23004AL  26166.11551371  .00000388  00000+0  10583-2 0  9993
2 55174  87.8889  21.4791 0002562  82.7282 277.4137 13.11420054165565
ONEWEB-0713             
1 55175U 23004AM  26166.28675881  .00000435  00000+0  11922-2 0  9996
2 55175  87.8889  21.4466 0002222  84.1839 275.9542 13.11415180165570
ONEWEB-0715             
1 55176U 23004AN  26166.12907297  .00000493  00000+0  13548-2 0  9999
2 55176  87.8889  21.4787 0001992 105.8326 254.3021 13.11417641165591
ONEWEB-0716             
1 55177U 23004AP  26166.07081687  .00000076  00000+0  16290-3 0  9995
2 55177  87.9134   6.2897 0001619  84.7448 275.3868 13.17649407167301
ONEWEB-0717             
1 55178U 23004AQ  26166.05394427 -.00000036  00000+0 -12587-3 0  9996
2 55178  87.9143   6.2804 0002432  90.4151 269.7259 13.17648607167356
ONEWEB-0719             
1 55179U 23004AR  26166.29188264  .00000006  00000+0 -18224-4 0  9994
2 55179  87.9141   6.2134 0001781  82.4903 277.6430 13.17648920167338
ONEWEB-0530             
1 55796U 23029A   26166.27177271  .00000046  00000+0  81407-4 0  9996
2 55796  87.9183 274.8510 0002318  92.3760 267.7639 13.20770938160892
